[
    {
        "Altitude(m)": 607911.0195420221,
        "Argument of Periapsis(deg)": 0.0,
        "Eccentricity": 0.0,
        "Inclination(deg)": 60.0,
        "Latitude(deg)": -14.293003452492595,
        "Longitude(deg)": -131.55736784104568,
        "Mean Anomaly(deg)": 196.36359999999996,
        "RAAN(deg)": 140.0,
        "Satellite Name": "Test1 628",
        "Satellite Number": 628,
        "Semi-Major Axis(m)": 6980739.136638005,
        "Time(s)": 0
    },
    {
        "Altitude(m)": 608060.2535498115,
        "Argument of Periapsis(deg)": 0.00010418945913296404,
        "Eccentricity": 0.0,
        "Inclination(deg)": 60.0,
        "Latitude(deg)": -14.826665157587131,
        "Longitude(deg)": -131.26875892218186,
        "Mean Anomaly(deg)": 196.98370614546178,
        "RAAN(deg)": 139.99957995086024,
        "Satellite Name": "Test1 628",
        "Satellite Number": 628,
        "Semi-Major Axis(m)": 6980739.136638005,
        "Time(s)": 10
    }
]